CONNECTA IOT-1          
1 60472U 24149E   26171.18272300  .00003192  00000+0  13648-3 0  9998
2 60472  97.3755 247.4237 0000444 226.6229 133.4971 15.23559366102250
LOPEN                   
1 60473U 24149F   26171.18484805  .00013008  00000+0  33057-3 0  9997
2 60473  97.3773 254.5764 0001099 176.9324 183.1929 15.39759663102721
ROCK                    
1 60474U 24149G   26170.78150342  .00012553  00000+0  31927-3 0  9997
2 60474  97.3773 254.1857 0001350 184.7634 175.3600 15.39743650102663
CONNECTA IOT-3          
1 60475U 24149H   26171.20407496  .00003208  00000+0  13710-3 0  9998
2 60475  97.3732 247.1968 0001551 232.0495 128.0602 15.23571504102262
QUBE                    
1 60476U 24149J   26171.21310969  .00021431  00000+0  42125-3 0  9998
2 60476  97.3776 257.7050 0002266 183.6112 176.5122 15.47306824102937
WREN-1                  
1 60478U 24149L   26171.18509494  .00017541  00000+0  41786-3 0  9998
2 60478  97.3762 255.3295 0003447 234.5594 125.5332 15.41652422102783
TOMORROW-S1             
1 60479U 24149M   26171.20477202  .00006011  00000+0  19251-3 0  9995
2 60479  97.3746 251.6677 0001852 199.1250 160.9923 15.32755992102552
FLOCK 4BE-18            
1 60480U 24149N   26171.19595238  .00013963  00000+0  33007-3 0  9994
2 60480  97.3725 254.9572 0003139 221.9124 138.1883 15.41937685102772
FLOCK 4BE-7             
1 60481U 24149P   26171.20643536  .00016911  00000+0  41973-3 0  9999
2 60481  97.3754 254.3009 0002366 221.4457 138.6610 15.40417822102711
TOMORROW-S2             
1 60485U 24149T   26171.03937789  .00006352  00000+0  20312-3 0  9992
2 60485  97.3814 251.9946 0001483 240.6913 119.4181 15.32784637102525
FLOCK 4BE-36            
1 60486U 24149U   26171.23060551  .00013651  00000+0  31361-3 0  9995
2 60486  97.3741 255.6959 0002578 238.1842 121.9155 15.42802726102822
FLOCK 4BE-25            
1 60487U 24149V   26171.20901838  .00010461  00000+0  27391-3 0  9999
2 60487  97.3795 254.3799 0001655 206.2226 153.8935 15.38897204102704
FLOCK 4BE-31            
1 60488U 24149W   26171.19404256  .00017515  00000+0  38341-3 0  9994
2 60488  97.3796 256.5251 0001693 225.3200 134.7910 15.44188692102846
FLOCK 4BE-20            
1 60489U 24149X   26171.17400751  .00011725  00000+0  31451-3 0  9991
2 60489  97.3693 253.2167 0002739 233.4617 126.6376 15.38120254102677
FLOCK 4BE-23            
1 60490U 24149Y   26171.03484195  .00011520  00000+0  31296-3 0  9992
2 60490  97.3775 253.4547 0002262 241.3079 118.7938 15.37732011102636
FLOCK 4BE-17            
1 60492U 24149AA  26171.21006281  .00012363  00000+0  31331-3 0  9996
2 60492  97.3770 254.6033 0002377 220.8171 139.2897 15.39855558102724
NUSAT-50 (NANCY ROMAN)  
1 60493U 24149AB  26170.78470753  .00007543  00000+0  26317-3 0  9999
2 60493  97.3784 252.0226 0003709 166.0298 194.1046 15.29892594102521
FLOCK 4BE-22            
1 60494U 24149AC  26171.18890082  .00013554  00000+0  32797-3 0  9994
2 60494  97.3728 254.7788 0002601 237.8392 122.2602 15.41240849102764
FLOCK 4BE-34            
1 60495U 24149AD  26170.75159279  .00011793  00000+0  28590-3 0  9992
2 60495  97.3778 255.1613 0002378 251.1718 108.9271 15.41217673102722
TYCHE                   
1 60496U 24149AE  26171.21753588  .00003450  00000+0  13698-3 0  9992
2 60496  97.3751 248.9940 0000882 217.0084 143.1094 15.26008919102360
FLOCK 4BE-32            
1 60497U 24149AF  26171.04293401  .00015606  00000+0  36492-3 0  9990
2 60497  97.3718 255.0009 0002674 242.2970 117.8006 15.42240995102770
NUSAT-48 (HENRIETTA LE*)
1 60498U 24149AG  26171.23116093  .00007773  00000+0  27106-3 0  9991
2 60498  97.3912 252.7144 0002470 258.0273 102.0691 15.29903935102609
FLOCK 4BE-30            
1 60499U 24149AH  26171.21358431  .00127959  00000+0  17365-2 0  9998
2 60499  97.3767 256.8347 0004773 229.9198 130.1640 15.57190185102241
NUSAT-49 (KLARA DAN VO*)
1 60500U 24149AJ  26171.20906592  .00007002  00000+0  24382-3 0  9991
2 60500  97.3778 252.4760 0000711 315.0628  45.0555 15.29986079102591
FLOCK 4BE-11            
1 60501U 24149AK  26171.23056455  .00014492  00000+0  32994-3 0  9998
2 60501  97.3696 255.4241 0002784 242.5833 117.5132 15.43058603102823
YAM-7                   
1 60504U 24149AN  26171.19282259  .00005879  00000+0  19370-3 0  9991
2 60504  97.3780 251.4304 0001820 287.5233  72.5809 15.31852973102515
FLOCK 4BE-24            
1 60505U 24149AP  26171.21694257  .00016897  00000+0  38285-3 0  9998
2 60505  97.3712 255.6671 0002914 257.1798 102.9124 15.43167776102834
LUR-1                   
1 60506U 24149AQ  26171.18651330  .00005647  00000+0  19624-3 0  9997
2 60506  97.3736 249.9934 0002602 303.9711  56.1282 15.30137974102432
